[
  {
    "OBJECT_NAME": "IRIDIUM 106",
    "OBJECT_ID": "2017-003A",
    "EPOCH": "2026-07-06T16:48:38.072160",
    "MEAN_MOTION": 14.34218502,
    "ECCENTRICITY": 0.0002122,
    "INCLINATION": 86.3953,
    "RA_OF_ASC_NODE": 80.3983,
    "ARG_OF_PERICENTER": 93.8202,
    "MEAN_ANOMALY": 266.3237,
    "EPHEMERIS_TYPE": 0,
    "CLASSIFICATION_TYPE": "U",
    "NORAD_CAT_ID": 41917,
    "ELEMENT_SET_NO": 999,
    "REV_AT_EPOCH": 49600,
    "BSTAR": 0.000017062,
    "MEAN_MOTION_DOT": 6.8e-7,
    "MEAN_MOTION_DDOT": 0
  },
  {
    "OBJECT_NAME": "IRIDIUM 103",
    "OBJECT_ID": "2017-003B",
    "EPOCH": "2026-07-06T16:30:22.159008",
    "MEAN_MOTION": 14.34217589,
    "ECCENTRICITY": 0.0001912,
    "INCLINATION": 86.3949,
    "RA_OF_ASC_NODE": 80.3031,
    "ARG_OF_PERICENTER": 79.287,
    "MEAN_ANOMALY": 280.8541,
    "EPHEMERIS_TYPE": 0,
    "CLASSIFICATION_TYPE": "U",
    "NORAD_CAT_ID": 41918,
    "ELEMENT_SET_NO": 999,
    "REV_AT_EPOCH": 49602,
    "BSTAR": -0.0000068471,
    "MEAN_MOTION_DOT": 1e-8,
    "MEAN_MOTION_DDOT": 0
  },
  {
    "OBJECT_NAME": "IRIDIUM 109",
    "OBJECT_ID": "2017-003C",
    "EPOCH": "2026-07-06T16:39:30.018816",
    "MEAN_MOTION": 14.34217609,
    "ECCENTRICITY": 0.0002219,
    "INCLINATION": 86.3952,
    "RA_OF_ASC_NODE": 80.3604,
    "ARG_OF_PERICENTER": 83.6978,
    "MEAN_ANOMALY": 276.4471,
    "EPHEMERIS_TYPE": 0,
    "CLASSIFICATION_TYPE": "U",
    "NORAD_CAT_ID": 41919,
    "ELEMENT_SET_NO": 999,
    "REV_AT_EPOCH": 49599,
    "BSTAR": 0.000053715,
    "MEAN_MOTION_DOT": 0.0000017,
    "MEAN_MOTION_DDOT": 0
  },
  {
    "OBJECT_NAME": "IRIDIUM 102",
    "OBJECT_ID": "2017-003D",
    "EPOCH": "2026-07-06T19:14:46.218912",
    "MEAN_MOTION": 14.34217759,
    "ECCENTRICITY": 0.0002281,
    "INCLINATION": 86.3951,
    "RA_OF_ASC_NODE": 80.2384,
    "ARG_OF_PERICENTER": 85.0865,
    "MEAN_ANOMALY": 275.0591,
    "EPHEMERIS_TYPE": 0,
    "CLASSIFICATION_TYPE": "U",
    "NORAD_CAT_ID": 41920,
    "ELEMENT_SET_NO": 999,
    "REV_AT_EPOCH": 49609,
    "BSTAR": -0.0000012444,
    "MEAN_MOTION_DOT": 1.6e-7,
    "MEAN_MOTION_DDOT": 0
  },
  {
    "OBJECT_NAME": "IRIDIUM 105",
    "OBJECT_ID": "2017-003E",
    "EPOCH": "2026-07-06T16:34:40.658304",
    "MEAN_MOTION": 14.34220047,
    "ECCENTRICITY": 0.0002303,
    "INCLINATION": 86.3946,
    "RA_OF_ASC_NODE": 48.7135,
    "ARG_OF_PERICENTER": 79.2968,
    "MEAN_ANOMALY": 280.8487,
    "EPHEMERIS_TYPE": 0,
    "CLASSIFICATION_TYPE": "U",
    "NORAD_CAT_ID": 41921,
    "ELEMENT_SET_NO": 999,
    "REV_AT_EPOCH": 49793,
    "BSTAR": 0.000067945,
    "MEAN_MOTION_DOT": 0.0000021,
    "MEAN_MOTION_DDOT": 0
  },
  {
    "OBJECT_NAME": "IRIDIUM 104",
    "OBJECT_ID": "2017-003F",
    "EPOCH": "2026-07-06T17:52:33.991104",
    "MEAN_MOTION": 14.34218553,
    "ECCENTRICITY": 0.0002211,
    "INCLINATION": 86.3953,
    "RA_OF_ASC_NODE": 80.3051,
    "ARG_OF_PERICENTER": 77.396,
    "MEAN_ANOMALY": 282.7483,
    "EPHEMERIS_TYPE": 0,
    "CLASSIFICATION_TYPE": "U",
    "NORAD_CAT_ID": 41922,
    "ELEMENT_SET_NO": 999,
    "REV_AT_EPOCH": 49607,
    "BSTAR": 0.000062126,
    "MEAN_MOTION_DOT": 0.00000194,
    "MEAN_MOTION_DDOT": 0
  },
  {
    "OBJECT_NAME": "IRIDIUM 114",
    "OBJECT_ID": "2017-003G",
    "EPOCH": "2026-07-06T16:21:14.164416",
    "MEAN_MOTION": 14.34217479,
    "ECCENTRICITY": 0.0002162,
    "INCLINATION": 86.3952,
    "RA_OF_ASC_NODE": 80.3147,
    "ARG_OF_PERICENTER": 80.7314,
    "MEAN_ANOMALY": 279.4126,
    "EPHEMERIS_TYPE": 0,
    "CLASSIFICATION_TYPE": "U",
    "NORAD_CAT_ID": 41923,
    "ELEMENT_SET_NO": 999,
    "REV_AT_EPOCH": 49604,
    "BSTAR": 0.000074912,
    "MEAN_MOTION_DOT": 0.0000023,
    "MEAN_MOTION_DDOT": 0
  },
  {
    "OBJECT_NAME": "IRIDIUM 108",
    "OBJECT_ID": "2017-003H",
    "EPOCH": "2026-07-06T15:21:30.194784",
    "MEAN_MOTION": 14.34218216,
    "ECCENTRICITY": 0.000226,
    "INCLINATION": 86.3941,
    "RA_OF_ASC_NODE": 48.6237,
    "ARG_OF_PERICENTER": 85.0084,
    "MEAN_ANOMALY": 275.1369,
    "EPHEMERIS_TYPE": 0,
    "CLASSIFICATION_TYPE": "U",
    "NORAD_CAT_ID": 41924,
    "ELEMENT_SET_NO": 999,
    "REV_AT_EPOCH": 49789,
    "BSTAR": 0.000040687,
    "MEAN_MOTION_DOT": 0.00000134,
    "MEAN_MOTION_DDOT": 0
  },
  {
    "OBJECT_NAME": "IRIDIUM 112",
    "OBJECT_ID": "2017-003J",
    "EPOCH": "2026-07-06T17:43:26.083776",
    "MEAN_MOTION": 14.34218636,
    "ECCENTRICITY": 0.0002245,
    "INCLINATION": 86.3947,
    "RA_OF_ASC_NODE": 80.132,
    "ARG_OF_PERICENTER": 82.1066,
    "MEAN_ANOMALY": 278.0384,
    "EPHEMERIS_TYPE": 0,
    "CLASSIFICATION_TYPE": "U",
    "NORAD_CAT_ID": 41925,
    "ELEMENT_SET_NO": 999,
    "REV_AT_EPOCH": 49607,
    "BSTAR": 0.000042558,
    "MEAN_MOTION_DOT": 0.00000139,
    "MEAN_MOTION_DDOT": 0
  },
  {
    "OBJECT_NAME": "IRIDIUM 111",
    "OBJECT_ID": "2017-003K",
    "EPOCH": "2026-07-06T19:05:38.105088",
    "MEAN_MOTION": 14.34217934,
    "ECCENTRICITY": 0.0002195,
    "INCLINATION": 86.395,
    "RA_OF_ASC_NODE": 80.1791,
    "ARG_OF_PERICENTER": 84.4155,
    "MEAN_ANOMALY": 275.7291,
    "EPHEMERIS_TYPE": 0,
    "CLASSIFICATION_TYPE": "U",
    "NORAD_CAT_ID": 41926,
    "ELEMENT_SET_NO": 999,
    "REV_AT_EPOCH": 49606,
    "BSTAR": 0.000031079,
    "MEAN_MOTION_DOT": 0.00000107,
    "MEAN_MOTION_DDOT": 0
  },
  {
    "OBJECT_NAME": "IRIDIUM 113",
    "OBJECT_ID": "2017-039A",
    "EPOCH": "2026-07-06T20:17:14.968032",
    "MEAN_MOTION": 14.3421715,
    "ECCENTRICITY": 0.0002138,
    "INCLINATION": 86.3988,
    "RA_OF_ASC_NODE": 313.9615,
    "ARG_OF_PERICENTER": 90.7058,
    "MEAN_ANOMALY": 269.4383,
    "EPHEMERIS_TYPE": 0,
    "CLASSIFICATION_TYPE": "U",
    "NORAD_CAT_ID": 42803,
    "ELEMENT_SET_NO": 999,
    "REV_AT_EPOCH": 47400,
    "BSTAR": 0.00010559,
    "MEAN_MOTION_DOT": 0.00000315,
    "MEAN_MOTION_DDOT": 0
  },
  {
    "OBJECT_NAME": "IRIDIUM 123",
    "OBJECT_ID": "2017-039B",
    "EPOCH": "2026-07-06T12:54:38.714112",
    "MEAN_MOTION": 14.34217272,
    "ECCENTRICITY": 0.0002041,
    "INCLINATION": 86.3985,
    "RA_OF_ASC_NODE": 345.547,
    "ARG_OF_PERICENTER": 92.459,
    "MEAN_ANOMALY": 267.684,
    "EPHEMERIS_TYPE": 0,
    "CLASSIFICATION_TYPE": "U",
    "NORAD_CAT_ID": 42804,
    "ELEMENT_SET_NO": 999,
    "REV_AT_EPOCH": 47272,
    "BSTAR": 0.00009621,
    "MEAN_MOTION_DOT": 0.00000289,
    "MEAN_MOTION_DDOT": 0
  },
  {
    "OBJECT_NAME": "IRIDIUM 120",
    "OBJECT_ID": "2017-039C",
    "EPOCH": "2026-07-06T20:08:07.046016",
    "MEAN_MOTION": 14.34217593,
    "ECCENTRICITY": 0.0002263,
    "INCLINATION": 86.3976,
    "RA_OF_ASC_NODE": 313.7442,
    "ARG_OF_PERICENTER": 99.0771,
    "MEAN_ANOMALY": 261.0681,
    "EPHEMERIS_TYPE": 0,
    "CLASSIFICATION_TYPE": "U",
    "NORAD_CAT_ID": 42805,
    "ELEMENT_SET_NO": 999,
    "REV_AT_EPOCH": 47399,
    "BSTAR": 0.000011007,
    "MEAN_MOTION_DOT": 5.1e-7,
    "MEAN_MOTION_DDOT": 0
  },
  {
    "OBJECT_NAME": "IRIDIUM 115",
    "OBJECT_ID": "2017-039D",
    "EPOCH": "2026-07-06T09:25:15.415392",
    "MEAN_MOTION": 14.43282918,
    "ECCENTRICITY": 0.00021142,
    "INCLINATION": 86.4513,
    "RA_OF_ASC_NODE": 314.0622,
    "ARG_OF_PERICENTER": 98.4794,
    "MEAN_ANOMALY": 261.6646,
    "EPHEMERIS_TYPE": 0,
    "CLASSIFICATION_TYPE": "U",
    "NORAD_CAT_ID": 42806,
    "ELEMENT_SET_NO": 999,
    "REV_AT_EPOCH": 47703,
    "BSTAR": 0.00010316408,
    "MEAN_MOTION_DOT": 0.00000367,
    "MEAN_MOTION_DDOT": 0
  }
]