IRIDIUM 106             
1 41917U 17003A   26187.70044065  .00000068  00000+0  17062-4 0  9996
2 41917  86.3953  80.3983 0002122  93.8202 266.3237 14.34218502496008
IRIDIUM 103             
1 41918U 17003B   26187.68775647  .00000001  00000+0 -68471-5 0  9990
2 41918  86.3949  80.3031 0001912  79.2870 280.8541 14.34217589496028
IRIDIUM 109             
1 41919U 17003C   26187.69409744  .00000170  00000+0  53715-4 0  9994
2 41919  86.3952  80.3604 0002219  83.6978 276.4471 14.34217609495999
IRIDIUM 102             
1 41920U 17003D   26187.80192383  .00000016  00000+0 -12444-5 0  9992
2 41920  86.3951  80.2384 0002281  85.0865 275.0591 14.34217759496090
IRIDIUM 105             
1 41921U 17003E   26187.69074836  .00000210  00000+0  67945-4 0  9992
2 41921  86.3946  48.7135 0002303  79.2968 280.8487 14.34220047497938
IRIDIUM 104             
1 41922U 17003F   26187.74483786  .00000194  00000+0  62126-4 0  9994
2 41922  86.3953  80.3051 0002211  77.3960 282.7483 14.34218553496075
IRIDIUM 114             
1 41923U 17003G   26187.68141394  .00000230  00000+0  74912-4 0  9991
2 41923  86.3952  80.3147 0002162  80.7314 279.4126 14.34217479496047
IRIDIUM 108             
1 41924U 17003H   26187.63993281  .00000134  00000+0  40687-4 0  9992
2 41924  86.3941  48.6237 0002260  85.0084 275.1369 14.34218216497890
IRIDIUM 112             
1 41925U 17003J   26187.73849634  .00000139  00000+0  42558-4 0  9990
2 41925  86.3947  80.1320 0002245  82.1066 278.0384 14.34218636496076
IRIDIUM 111             
1 41926U 17003K   26187.79557992  .00000107  00000+0  31079-4 0  9991
2 41926  86.3950  80.1791 0002195  84.4155 275.7291 14.34217934496061
IRIDIUM 113             
1 42803U 17039A   26187.84531213  .00000315  00000+0  10559-3 0  9999
2 42803  86.3988 313.9615 0002138  90.7058 269.4383 14.34217150474000
IRIDIUM 123             
1 42804U 17039B   26187.53794808  .00000289  00000+0  96210-4 0  9996
2 42804  86.3985 345.5470 0002041  92.4590 267.6840 14.34217272472721
IRIDIUM 120             
1 42805U 17039C   26187.83897044  .00000051  00000+0  11007-4 0  9994
2 42805  86.3976 313.7442 0002263  99.0771 261.0681 14.34217593473995
IRIDIUM 115             
1 42806U 17039D   26187.39253953  .00000367  00000+0  10316-3 0  9992
2 42806  86.4513 314.0622 0002114  98.4794 261.6646 14.43282918477030
